FENGYUN 1C DEB          
1 37046U 99025EEE 17345.27791176  .00000326  00000-0  17967-3 0  9999
2 37046  98.8221  18.1990 0055652  92.3941 268.3607 14.17436186477260
